{"type": "FeatureCollection", "features": [ {"type": "Feature", "properties": {"norad_id": 35051, "name": "IRIDIUM 33 DEB", "group": "iridium-33-debris", "lat": 23.740791491255123, "lon": -167.71241391373613, "alt_km": 727.3653834576662, "timestamp": "2025-12-01T03:58:49.184162+00:00", "meta": {"OBJECT_NAME": "IRIDIUM 33 DEB", "OBJECT_ID": "1997-051NX", "EPOCH": "2025-11-28T08:53:55.569984", "MEAN_MOTION": 14.47498462, "ECCENTRICITY": 0.00102762, "INCLINATION": 86.3256, "RA_OF_ASC_NODE": 15.1243, "ARG_OF_PERICENTER": 130.2259, "MEAN_ANOMALY": 229.9844, "EPHEMERIS_TYPE": 0, "CLASSIFICATION_TYPE": "U", "NORAD_CAT_ID": 35051, "ELEMENT_SET_NO": 999, "REV_AT_EPOCH": 86788, "BSTAR": 0.00064953268, "MEAN_MOTION_DOT": 2.407e-05, "MEAN_MOTION_DDOT": 0, "GROUP": "iridium-33-debris"}, "tle": {"line1": "1 35051U 97051NX  25332.37078206  .00002407  00000+0  64953-3 0  9996", "line2": "2 35051  86.3256  15.1243 0010276 130.2259 229.9844 14.47498462867884"}}, "geometry": {"type": "Point", "coordinates": [-167.71241391373613, 23.740791491255123]}}, {"type": "Feature", "properties": {"norad_id": 35052, "name": "IRIDIUM 33 DEB", "group": "iridium-33-debris", "lat": -37.321760734449015, "lon": 22.63463391644942, "alt_km": 778.6590388040368, "timestamp": "2025-12-01T03:58:49.184172+00:00", "meta": {"OBJECT_NAME": "IRIDIUM 33 DEB", "OBJECT_ID": "1997-051NY", "EPOCH": "2025-11-30T09:47:23.058528", "MEAN_MOTION": 14.38468897, "ECCENTRICITY": 0.00134264, "INCLINATION": 86.3322, "RA_OF_ASC_NODE": 25.7624, "ARG_OF_PERICENTER": 119.4658, "MEAN_ANOMALY": 240.7881, "EPHEMERIS_TYPE": 0, "CLASSIFICATION_TYPE": "U", "NORAD_CAT_ID": 35052, "ELEMENT_SET_NO": 999, "REV_AT_EPOCH": 87098, "BSTAR": 0.00020196561, "MEAN_MOTION_DOT": 6.37e-06, "MEAN_MOTION_DDOT": 0, "GROUP": "iridium-33-debris"}, "tle": {"line1": "1 35052U 97051NY  25334.40790577  .00000637  00000+0  20197-3 0  9990", "line2": "2 35052  86.3322  25.7624 0013426 119.4658 240.7881 14.38468897870987"}}, "geometry": {"type": "Point", "coordinates": [22.63463391644942, -37.321760734449015]}}, {"type": "Feature", "properties": {"norad_id": 35080, "name": "IRIDIUM 33 DEB", "group": "iridium-33-debris", "lat": 7.09273788264327, "lon": 58.37195759385944, "alt_km": 658.2923296284671, "timestamp": "2025-12-01T03:58:49.184182+00:00", "meta": {"OBJECT_NAME": "IRIDIUM 33 DEB", "OBJECT_ID": "1997-051PF", "EPOCH": "2025-11-30T05:17:07.150560", "MEAN_MOTION": 14.83528996, "ECCENTRICITY": 0.00649663, "INCLINATION": 86.2066, "RA_OF_ASC_NODE": 58.3492, "ARG_OF_PERICENTER": 222.6272, "MEAN_ANOMALY": 136.99, "EPHEMERIS_TYPE": 0, "CLASSIFICATION_TYPE": "U", "NORAD_CAT_ID": 35080, "ELEMENT_SET_NO": 999, "REV_AT_EPOCH": 69502, "BSTAR": 0.0087445777, "MEAN_MOTION_DOT": 0.0007539, "MEAN_MOTION_DDOT": 0, "GROUP": "iridium-33-debris"}, "tle": {"line1": "1 35080U 97051PF  25334.22022165  .00075390  00000+0  87446-2 0  9999", "line2": "2 35080  86.2066  58.3492 0064966 222.6272 136.9900 14.83528996695026"}}, "geometry": {"type": "Point", "coordinates": [58.37195759385944, 7.09273788264327]}}, {"type": "Feature", "properties": {"norad_id": 35297, "name": "IRIDIUM 33 DEB", "group": "iridium-33-debris", "lat": -46.085884120506414, "lon": 63.93426622643276, "alt_km": 757.170762322201, "timestamp": "2025-12-01T03:58:49.184192+00:00", "meta": {"OBJECT_NAME": "IRIDIUM 33 DEB", "OBJECT_ID": "1997-051PM", "EPOCH": "2025-11-28T13:02:32.385696", "MEAN_MOTION": 14.4505178, "ECCENTRICITY": 0.00162447, "INCLINATION": 86.3859, "RA_OF_ASC_NODE": 68.817, "ARG_OF_PERICENTER": 185.2069, "MEAN_ANOMALY": 174.8967, "EPHEMERIS_TYPE": 0, "CLASSIFICATION_TYPE": "U", "NORAD_CAT_ID": 35297, "ELEMENT_SET_NO": 999, "REV_AT_EPOCH": 70221, "BSTAR": 0.00072341306, "MEAN_MOTION_DOT": 2.549e-05, "MEAN_MOTION_DDOT": 0, "GROUP": "iridium-33-debris"}, "tle": {"line1": "1 35297U 97051PM  25332.54343039  .00002549  00000+0  72341-3 0  9993", "line2": "2 35297  86.3859  68.8170 0016244 185.2069 174.8967 14.45051780702214"}}, "geometry": {"type": "Point", "coordinates": [63.93426622643276, -46.085884120506414]}}, {"type": "Feature", "properties": {"norad_id": 35299, "name": "IRIDIUM 33 DEB", "group": "iridium-33-debris", "lat": 64.48525665442523, "lon": 46.03780080745897, "alt_km": 738.3856382369313, "timestamp": "2025-12-01T03:58:49.184202+00:00", "meta": {"OBJECT_NAME": "IRIDIUM 33 DEB", "OBJECT_ID": "1997-051PP", "EPOCH": "2025-11-30T15:04:09.702912", "MEAN_MOTION": 14.40761556, "ECCENTRICITY": 0.005846, "INCLINATION": 86.2896, "RA_OF_ASC_NODE": 38.4578, "ARG_OF_PERICENTER": 141.04, "MEAN_ANOMALY": 15.9157, "EPHEMERIS_TYPE": 0, "CLASSIFICATION_TYPE": "U", "NORAD_CAT_ID": 35299, "ELEMENT_SET_NO": 999, "REV_AT_EPOCH": 86156, "BSTAR": 0.00082357, "MEAN_MOTION_DOT": 2.707e-05, "MEAN_MOTION_DDOT": 0, "GROUP": "iridium-33-debris"}, "tle": {"line1": "1 35299U 97051PP  25334.62789008  .00002707  00000+0  82357-3 0  9990", "line2": "2 35299  86.2896  38.4578 0058460 141.0400  15.9157 14.40761556861560"}}, "geometry": {"type": "Point", "coordinates": [46.03780080745897, 64.48525665442523]}}, {"type": "Feature", "properties": {"norad_id": 35480, "name": "IRIDIUM 33 DEB", "group": "iridium-33-debris", "lat": 24.85019615794666, "lon": -151.76057080572173, "alt_km": 715.5642015522135, "timestamp": "2025-12-01T03:58:49.184250+00:00", "meta": {"OBJECT_NAME": "IRIDIUM 33 DEB", "OBJECT_ID": "1997-051QA", "EPOCH": "2025-11-30T14:00:56.223648", "MEAN_MOTION": 14.4967891, "ECCENTRICITY": 0.001541, "INCLINATION": 86.358, "RA_OF_ASC_NODE": 30.1818, "ARG_OF_PERICENTER": 140.5446, "MEAN_ANOMALY": 219.6884, "EPHEMERIS_TYPE": 0, "CLASSIFICATION_TYPE": "U", "NORAD_CAT_ID": 35480, "ELEMENT_SET_NO": 999, "REV_AT_EPOCH": 86855, "BSTAR": 0.00055496, "MEAN_MOTION_DOT": 2.157e-05, "MEAN_MOTION_DDOT": 0, "GROUP": "iridium-33-debris"}, "tle": {"line1": "1 35480U 97051QA  25334.58398407  .00002157  00000+0  55496-3 0  9999", "line2": "2 35480  86.3580  30.1818 0015410 140.5446 219.6884 14.49678910868557"}}, "geometry": {"type": "Point", "coordinates": [-151.76057080572173, 24.85019615794666]}}, {"type": "Feature", "properties": {"norad_id": 35484, "name": "IRIDIUM 33 DEB", "group": "iridium-33-debris", "lat": 71.95766755073087, "lon": 166.89308284788183, "alt_km": 559.4218236405823, "timestamp": "2025-12-01T03:58:49.184261+00:00", "meta": {"OBJECT_NAME": "IRIDIUM 33 DEB", "OBJECT_ID": "1997-051QE", "EPOCH": "2025-11-30T19:28:55.617312", "MEAN_MOTION": 14.97520262, "ECCENTRICITY": 0.0021692, "INCLINATION": 86.3623, "RA_OF_ASC_NODE": 358.321, "ARG_OF_PERICENTER": 165.9186, "MEAN_ANOMALY": 194.2655, "EPHEMERIS_TYPE": 0, "CLASSIFICATION_TYPE": "U", "NORAD_CAT_ID": 35484, "ELEMENT_SET_NO": 999, "REV_AT_EPOCH": 61837, "BSTAR": 0.0027277, "MEAN_MOTION_DOT": 0.00032083, "MEAN_MOTION_DDOT": 0, "GROUP": "iridium-33-debris"}, "tle": {"line1": "1 35484U 97051QE  25334.81175483  .00032083  00000+0  27277-2 0  9992", "line2": "2 35484  86.3623 358.3210 0021692 165.9186 194.2655 14.97520262618377"}}, "geometry": {"type": "Point", "coordinates": [166.89308284788183, 71.95766755073087]}}, {"type": "Feature", "properties": {"norad_id": 35488, "name": "IRIDIUM 33 DEB", "group": "iridium-33-debris", "lat": 47.56114621536351, "lon": 122.18110196799555, "alt_km": 604.5293016638025, "timestamp": "2025-12-01T03:58:49.184272+00:00", "meta": {"OBJECT_NAME": "IRIDIUM 33 DEB", "OBJECT_ID": "1997-051QJ", "EPOCH": "2025-11-25T04:50:11.557824", "MEAN_MOTION": 14.82472914, "ECCENTRICITY": 0.00305996, "INCLINATION": 86.3238, "RA_OF_ASC_NODE": 308.9607, "ARG_OF_PERICENTER": 98.675, "MEAN_ANOMALY": 261.7941, "EPHEMERIS_TYPE": 0, "CLASSIFICATION_TYPE": "U", "NORAD_CAT_ID": 35488, "ELEMENT_SET_NO": 999, "REV_AT_EPOCH": 88006, "BSTAR": 0.001418627, "MEAN_MOTION_DOT": 0.00011507, "MEAN_MOTION_DDOT": 0, "GROUP": "iridium-33-debris"}, "tle": {"line1": "1 35488U 97051QJ  25329.20152266  .00011507  00000+0  14186-2 0  9990", "line2": "2 35488  86.3238 308.9607 0030599  98.6750 261.7941 14.82472914880068"}}, "geometry": {"type": "Point", "coordinates": [122.18110196799555, 47.56114621536351]}}, {"type": "Feature", "properties": {"norad_id": 35616, "name": "IRIDIUM 33 DEB", "group": "iridium-33-debris", "lat": -16.8105233752261, "lon": -10.057151398509651, "alt_km": 634.4353139716786, "timestamp": "2025-12-01T03:58:49.184282+00:00", "meta": {"OBJECT_NAME": "IRIDIUM 33 DEB", "OBJECT_ID": "1997-051QN", "EPOCH": "2025-11-30T18:19:44.124960", "MEAN_MOTION": 14.81330551, "ECCENTRICITY": 0.0008506, "INCLINATION": 86.355, "RA_OF_ASC_NODE": 351.2297, "ARG_OF_PERICENTER": 208.1425, "MEAN_ANOMALY": 151.9338, "EPHEMERIS_TYPE": 0, "CLASSIFICATION_TYPE": "U", "NORAD_CAT_ID": 35616, "ELEMENT_SET_NO": 999, "REV_AT_EPOCH": 87397, "BSTAR": 0.0016647, "MEAN_MOTION_DOT": 0.00013037, "MEAN_MOTION_DDOT": 0, "GROUP": "iridium-33-debris"}, "tle": {"line1": "1 35616U 97051QN  25334.76370515  .00013037  00000+0  16647-2 0  9993", "line2": "2 35616  86.3550 351.2297 0008506 208.1425 151.9338 14.81330551873975"}}, "geometry": {"type": "Point", "coordinates": [-10.057151398509651, -16.8105233752261]}}]}